KOREASAT 6              
1 37265U 10070B   26074.17066429  .00000000  00000+0  00000+0 0  9993
2 37265   0.0275 152.3445 0002053 198.6569  43.1145  1.00270040 55829
BEIDOU-2 IGSO-3         
1 37384U 11013A   26073.84886110 -.00000147  00000+0  00000+0 0  9996
2 37384  62.2850  41.0424 0034774 190.0864 353.6522  1.00291120 54717
INTELSAT 28 (IS-28)     
1 37392U 11016A   26074.27535807 -.00000225  00000+0  00000+0 0  9997
2 37392   1.5617  83.8231 0004598 273.5847 242.9014  1.00271679 52342
YAHSAT 1A               
1 37393U 11016B   26074.22067118  .00000100  00000+0  00000+0 0  9999
2 37393   0.0192 174.2956 0003473 191.2881 299.1711  1.00270636 41460
SBIRS GEO-1 (USA 230)   
1 37481U 11019A   26074.14925753  .00000102  00000+0  00000+0 0  9991
2 37481   4.3301  53.1000 0002340 298.8737 286.3042  1.00272290 54454
TELSTAR 14R             
1 37602U 11021A   26073.98389683  .00000000  00000+0  00000+0 0  9993
2 37602   0.0257 147.3410 0002229 211.0799 105.3846  1.00268726 54893
GSAT-8                  
1 37605U 11022A   26074.22119118  .00000085  00000+0  00000+0 0  9992
2 37605   1.8865  83.0033 0006958 216.8111   7.7004  1.00270620 52278
ST-2                    
1 37606U 11022B   26074.08512394 -.00000212  00000+0  00000+0 0  9993
2 37606   0.0147 147.3042 0001863 229.3736 274.6750  1.00272076 54338
ZHONGXING-10            
1 37677U 11026A   26073.94194999 -.00000190  00000+0  00000+0 0  9991
2 37677   0.8015  85.3822 0002334 286.2212 225.5475  1.00275592 54054
SES-3                   
1 37748U 11035A   26074.26123133 -.00000102  00000+0  00000+0 0  9991
2 37748   1.0820  84.1535 0003558 276.8198 162.9272  1.00272033 53656
KAZSAT-2                
1 37749U 11035B   26074.08477727  .00000000  00000+0  00000+0 0  9999
2 37749   0.0209 137.9915 0000686 265.4999 246.2167  1.00268407 52454
BEIDOU-2 IGSO-4         
1 37763U 11038A   26073.76842311 -.00000094  00000+0  00000+0 0  9991
2 37763  54.5890 166.5285 0155368 231.0457 145.5369  1.00264319 53706
ASTRA 1N                
1 37775U 11041A   26073.92886326  .00000119  00000+0  00000+0 0  9997
2 37775   0.0823  38.0518 0004686 349.8860 138.1720  1.00273441 43585
BSAT-3C (JCSAT-110R)    
1 37776U 11041B   26073.99419670 -.00000351  00000+0  00000+0 0  9998
2 37776   0.0159 338.7511 0000212 259.8818  41.8241  1.00272800 49521
PAKSAT-1R               
1 37779U 11042A   26074.28913814  .00000153  00000+0  00000+0 0  9993
2 37779   0.4438  85.5693 0002358 303.1047 286.1951  1.00268386 53538
SES-2                   
1 37809U 11049A   26074.19311104 -.00000197  00000+0  00000+0 0  9997
2 37809   0.0369  74.0461 0002814 282.7933 158.4729  1.00272266 53020
ARABSAT-5C              
1 37810U 11049B   26074.21425781  .00000123  00000+0  00000+0 0  9997
2 37810   0.0599  23.4996 0002804 332.4906 273.9444  1.00273510 53097
