[{"OBJECT_NAME":"KOREASAT 6","OBJECT_ID":"2010-070B","EPOCH":"2026-03-15T04:05:45.394656","MEAN_MOTION":1.0027004,"ECCENTRICITY":0.00020533,"INCLINATION":0.0275,"RA_OF_ASC_NODE":152.3445,"ARG_OF_PERICENTER":198.6569,"MEAN_ANOMALY":43.1145,"EPHEMERIS_TYPE":0,"CLASSIFICATION_TYPE":"U","NORAD_CAT_ID":37265,"ELEMENT_SET_NO":999,"REV_AT_EPOCH":5582,"BSTAR":0,"MEAN_MOTION_DOT":0,"MEAN_MOTION_DDOT":0},{"OBJECT_NAME":"BEIDOU-2 IGSO-3","OBJECT_ID":"2011-013A","EPOCH":"2026-03-14T20:22:21.599040","MEAN_MOTION":1.0029112,"ECCENTRICITY":0.00347746,"INCLINATION":62.285,"RA_OF_ASC_NODE":41.0424,"ARG_OF_PERICENTER":190.0864,"MEAN_ANOMALY":353.6522,"EPHEMERIS_TYPE":0,"CLASSIFICATION_TYPE":"U","NORAD_CAT_ID":37384,"ELEMENT_SET_NO":999,"REV_AT_EPOCH":5471,"BSTAR":0,"MEAN_MOTION_DOT":-1.47e-6,"MEAN_MOTION_DDOT":0},{"OBJECT_NAME":"INTELSAT 28 (IS-28)","OBJECT_ID":"2011-016A","EPOCH":"2026-03-15T06:36:30.937248","MEAN_MOTION":1.00271679,"ECCENTRICITY":0.00045988,"INCLINATION":1.5617,"RA_OF_ASC_NODE":83.8231,"ARG_OF_PERICENTER":273.5847,"MEAN_ANOMALY":242.9014,"EPHEMERIS_TYPE":0,"CLASSIFICATION_TYPE":"U","NORAD_CAT_ID":37392,"ELEMENT_SET_NO":999,"REV_AT_EPOCH":5234,"BSTAR":0,"MEAN_MOTION_DOT":-2.25e-6,"MEAN_MOTION_DDOT":0},{"OBJECT_NAME":"YAHSAT 1A","OBJECT_ID":"2011-016B","EPOCH":"2026-03-15T05:17:45.989952","MEAN_MOTION":1.00270636,"ECCENTRICITY":0.00034732,"INCLINATION":0.0192,"RA_OF_ASC_NODE":174.2956,"ARG_OF_PERICENTER":191.2881,"MEAN_ANOMALY":299.1711,"EPHEMERIS_TYPE":0,"CLASSIFICATION_TYPE":"U","NORAD_CAT_ID":37393,"ELEMENT_SET_NO":999,"REV_AT_EPOCH":4146,"BSTAR":0,"MEAN_MOTION_DOT":1.0e-6,"MEAN_MOTION_DDOT":0},{"OBJECT_NAME":"SBIRS GEO-1 (USA 230)","OBJECT_ID":"2011-019A","EPOCH":"2026-03-15T03:34:55.850592","MEAN_MOTION":1.0027229,"ECCENTRICITY":0.00023406,"INCLINATION":4.3301,"RA_OF_ASC_NODE":53.1,"ARG_OF_PERICENTER":298.8737,"MEAN_ANOMALY":286.3042,"EPHEMERIS_TYPE":0,"CLASSIFICATION_TYPE":"U","NORAD_CAT_ID":37481,"ELEMENT_SET_NO":999,"REV_AT_EPOCH":5445,"BSTAR":0,"MEAN_MOTION_DOT":1.02e-6,"MEAN_MOTION_DDOT":0},{"OBJECT_NAME":"TELSTAR 14R","OBJECT_ID":"2011-021A","EPOCH":"2026-03-14T23:36:48.686112","MEAN_MOTION":1.00268726,"ECCENTRICITY":0.00022293,"INCLINATION":0.0257,"RA_OF_ASC_NODE":147.341,"ARG_OF_PERICENTER":211.0799,"MEAN_ANOMALY":105.3846,"EPHEMERIS_TYPE":0,"CLASSIFICATION_TYPE":"U","NORAD_CAT_ID":37602,"ELEMENT_SET_NO":999,"REV_AT_EPOCH":5489,"BSTAR":0,"MEAN_MOTION_DOT":0,"MEAN_MOTION_DDOT":0},{"OBJECT_NAME":"GSAT-8","OBJECT_ID":"2011-022A","EPOCH":"2026-03-15T05:18:30.917952","MEAN_MOTION":1.0027062,"ECCENTRICITY":0.00069586,"INCLINATION":1.8865,"RA_OF_ASC_NODE":83.0033,"ARG_OF_PERICENTER":216.8111,"MEAN_ANOMALY":7.7004,"EPHEMERIS_TYPE":0,"CLASSIFICATION_TYPE":"U","NORAD_CAT_ID":37605,"ELEMENT_SET_NO":999,"REV_AT_EPOCH":5227,"BSTAR":0,"MEAN_MOTION_DOT":8.5e-7,"MEAN_MOTION_DDOT":0},{"OBJECT_NAME":"ST-2","OBJECT_ID":"2011-022B","EPOCH":"2026-03-15T02:02:34.708416","MEAN_MOTION":1.00272076,"ECCENTRICITY":0.00018634,"INCLINATION":0.0147,"RA_OF_ASC_NODE":147.3042,"ARG_OF_PERICENTER":229.3736,"MEAN_ANOMALY":274.675,"EPHEMERIS_TYPE":0,"CLASSIFICATION_TYPE":"U","NORAD_CAT_ID":37606,"ELEMENT_SET_NO":999,"REV_AT_EPOCH":5433,"BSTAR":0,"MEAN_MOTION_DOT":-2.12e-6,"MEAN_MOTION_DDOT":0},{"OBJECT_NAME":"ZHONGXING-10","OBJECT_ID":"2011-026A","EPOCH":"2026-03-14T22:36:24.479136","MEAN_MOTION":1.00275592,"ECCENTRICITY":0.00023341,"INCLINATION":0.8015,"RA_OF_ASC_NODE":85.3822,"ARG_OF_PERICENTER":286.2212,"MEAN_ANOMALY":225.5475,"EPHEMERIS_TYPE":0,"CLASSIFICATION_TYPE":"U","NORAD_CAT_ID":37677,"ELEMENT_SET_NO":999,"REV_AT_EPOCH":5405,"BSTAR":0,"MEAN_MOTION_DOT":-1.9e-6,"MEAN_MOTION_DDOT":0},{"OBJECT_NAME":"SES-3","OBJECT_ID":"2011-035A","EPOCH":"2026-03-15T06:16:10.386912","MEAN_MOTION":1.00272033,"ECCENTRICITY":0.00035583,"INCLINATION":1.082,"RA_OF_ASC_NODE":84.1535,"ARG_OF_PERICENTER":276.8198,"MEAN_ANOMALY":162.9272,"EPHEMERIS_TYPE":0,"CLASSIFICATION_TYPE":"U","NORAD_CAT_ID":37748,"ELEMENT_SET_NO":999,"REV_AT_EPOCH":5365,"BSTAR":0,"MEAN_MOTION_DOT":-1.02e-6,"MEAN_MOTION_DDOT":0},{"OBJECT_NAME":"KAZSAT-2","OBJECT_ID":"2011-035B","EPOCH":"2026-03-15T02:02:04.756128","MEAN_MOTION":1.00268407,"ECCENTRICITY":6.864e-5,"INCLINATION":0.0209,"RA_OF_ASC_NODE":137.9915,"ARG_OF_PERICENTER":265.4999,"MEAN_ANOMALY":246.2167,"EPHEMERIS_TYPE":0,"CLASSIFICATION_TYPE":"U","NORAD_CAT_ID":37749,"ELEMENT_SET_NO":999,"REV_AT_EPOCH":5245,"BSTAR":0,"MEAN_MOTION_DOT":0,"MEAN_MOTION_DDOT":0},{"OBJECT_NAME":"BEIDOU-2 IGSO-4","OBJECT_ID":"2011-038A","EPOCH":"2026-03-14T18:26:31.756704","MEAN_MOTION":1.00264319,"ECCENTRICITY":0.01553681,"INCLINATION":54.589,"RA_OF_ASC_NODE":166.5285,"ARG_OF_PERICENTER":231.0457,"MEAN_ANOMALY":145.5369,"EPHEMERIS_TYPE":0,"CLASSIFICATION_TYPE":"U","NORAD_CAT_ID":37763,"ELEMENT_SET_NO":999,"REV_AT_EPOCH":5370,"BSTAR":0,"MEAN_MOTION_DOT":-9.4e-7,"MEAN_MOTION_DDOT":0},{"OBJECT_NAME":"ASTRA 1N","OBJECT_ID":"2011-041A","EPOCH":"2026-03-14T22:17:33.785664","MEAN_MOTION":1.00273441,"ECCENTRICITY":0.00046866,"INCLINATION":0.0823,"RA_OF_ASC_NODE":38.0518,"ARG_OF_PERICENTER":349.886,"MEAN_ANOMALY":138.172,"EPHEMERIS_TYPE":0,"CLASSIFICATION_TYPE":"U","NORAD_CAT_ID":37775,"ELEMENT_SET_NO":999,"REV_AT_EPOCH":4358,"BSTAR":0,"MEAN_MOTION_DOT":1.19e-6,"MEAN_MOTION_DDOT":0},{"OBJECT_NAME":"BSAT-3C (JCSAT-110R)","OBJECT_ID":"2011-041B","EPOCH":"2026-03-14T23:51:38.594880","MEAN_MOTION":1.002728,"ECCENTRICITY":2.126e-5,"INCLINATION":0.0159,"RA_OF_ASC_NODE":338.7511,"ARG_OF_PERICENTER":259.8818,"MEAN_ANOMALY":41.8241,"EPHEMERIS_TYPE":0,"CLASSIFICATION_TYPE":"U","NORAD_CAT_ID":37776,"ELEMENT_SET_NO":999,"REV_AT_EPOCH":4952,"BSTAR":0,"MEAN_MOTION_DOT":-3.51e-6,"MEAN_MOTION_DDOT":0},{"OBJECT_NAME":"PAKSAT-1R","OBJECT_ID":"2011-042A","EPOCH":"2026-03-15T06:56:21.535296","MEAN_MOTION":1.00268386,"ECCENTRICITY":0.00023589,"INCLINATION":0.4438,"RA_OF_ASC_NODE":85.5693,"ARG_OF_PERICENTER":303.1047,"MEAN_ANOMALY":286.1951,"EPHEMERIS_TYPE":0,"CLASSIFICATION_TYPE":"U","NORAD_CAT_ID":37779,"ELEMENT_SET_NO":999,"REV_AT_EPOCH":5353,"BSTAR":0,"MEAN_MOTION_DOT":1.53e-6,"MEAN_MOTION_DDOT":0},{"OBJECT_NAME":"SES-2","OBJECT_ID":"2011-049A","EPOCH":"2026-03-15T04:38:04.793856","MEAN_MOTION":1.00272266,"ECCENTRICITY":0.00028143,"INCLINATION":0.0369,"RA_OF_ASC_NODE":74.0461,"ARG_OF_PERICENTER":282.7933,"MEAN_ANOMALY":158.4729,"EPHEMERIS_TYPE":0,"CLASSIFICATION_TYPE":"U","NORAD_CAT_ID":37809,"ELEMENT_SET_NO":999,"REV_AT_EPOCH":5302,"BSTAR":0,"MEAN_MOTION_DOT":-1.97e-6,"MEAN_MOTION_DDOT":0},{"OBJECT_NAME":"ARABSAT-5C","OBJECT_ID":"2011-049B","EPOCH":"2026-03-15T05:08:31.874784","MEAN_MOTION":1.0027351,"ECCENTRICITY":0.00028045,"INCLINATION":0.0599,"RA_OF_ASC_NODE":23.4996,"ARG_OF_PERICENTER":332.4906,"MEAN_ANOMALY":273.9444,"EPHEMERIS_TYPE":0,"CLASSIFICATION_TYPE":"U","NORAD_CAT_ID":37810,"ELEMENT_SET_NO":999,"REV_AT_EPOCH":5309,"BSTAR":0,"MEAN_MOTION_DOT":1.23e-6,"MEAN_MOTION_DDOT":0}]
